Satellite: BEESAT-2
Catalog number: 39136
Epoch time:      15001.02670085
Element set:     786
Inclination:      064.8737 deg
RA of node:       232.3032 deg
Eccentricity:    0.0035928
Arg of perigee:   274.8877 deg
Mean anomaly:     084.8142 deg
Mean motion:   15.07789289 rev/day
Decay rate:      6.119e-05 rev/day^2
Epoch rev:            9343
Checksum:              328

Satellite: LO-75
Catalog number: 39382
Epoch time:      14295.69194059
Element set:     487
Inclination:      040.4713 deg
RA of node:       030.2705 deg
Eccentricity:    0.0002289
Arg of perigee:   341.7175 deg
Mean anomaly:     018.4586 deg
Mean motion:   16.19795749 rev/day
Decay rate:   7.301741e-02 rev/day^2
Epoch rev:           47082
Checksum:              345

Satellite: ZACUBE-1
Catalog number: 39417
Epoch time:      15001.13425270
Element set:     503
Inclination:      097.7536 deg
RA of node:       069.8054 deg
Eccentricity:    0.0060195
Arg of perigee:   321.2795 deg
Mean anomaly:     038.4109 deg
Mean motion:   14.78997562 rev/day
Decay rate:      1.567e-05 rev/day^2
Epoch rev:            5993
Checksum:              320

Satellite: TRITON-1
Catalog number: 39427
Epoch time:      14365.75883338
Element set:     354
Inclination:      097.7397 deg
RA of node:       061.2048 deg
Eccentricity:    0.0116072
Arg of perigee:   341.9263 deg
Mean anomaly:     017.7830 deg
Mean motion:   14.66087731 rev/day
Decay rate:      1.071e-05 rev/day^2
Epoch rev:            5933
Checksum:              317

Satellite: DELFIN3XT
Catalog number: 39428
Epoch time:      15001.41918848
Element set:     359
Inclination:      097.7399 deg
RA of node:       060.4863 deg
Eccentricity:    0.0125581
Arg of perigee:   343.5068 deg
Mean anomaly:     016.2067 deg
Mean motion:   14.64447629 rev/day
Decay rate:      2.098e-05 rev/day^2
Epoch rev:            5932
Checksum:              333

Satellite: GOMX-1
Catalog number: 39430
Epoch time:      15001.76541923
Element set:     128
Inclination:      097.7340 deg
RA of node:       056.7378 deg
Eccentricity:    0.0155196
Arg of perigee:   354.1758 deg
Mean anomaly:     005.7627 deg
Mean motion:   14.57512908 rev/day
Decay rate:      1.807e-05 rev/day^2
Epoch rev:            5913
Checksum:              313

Satellite: MO-76
Catalog number: 39436
Epoch time:      15001.15633108
Element set:     452
Inclination:      097.7623 deg
RA of node:       077.3409 deg
Eccentricity:    0.0021819
Arg of perigee:   312.6117 deg
Mean anomaly:     047.3265 deg
Mean motion:   14.97882650 rev/day
Decay rate:     2.2107e-04 rev/day^2
Epoch rev:            6041
Checksum:              297

Satellite: LO-74
Catalog number: 39440
Epoch time:      15001.70862373
Element set:     351
Inclination:      097.7478 deg
RA of node:       067.0878 deg
Eccentricity:    0.0081941
Arg of perigee:   326.1162 deg
Mean anomaly:     033.4827 deg
Mean motion:   14.73872166 rev/day
Decay rate:      1.297e-05 rev/day^2
Epoch rev:            5980
Checksum:              327

Satellite: PUCPSAT-1
Catalog number: 39442
Epoch time:      15001.66010893
Element set:     352
Inclination:      097.7603 deg
RA of node:       075.4630 deg
Eccentricity:    0.0032622
Arg of perigee:   313.8959 deg
Mean anomaly:     045.9565 deg
Mean motion:   14.87458894 rev/day
Decay rate:      3.080e-05 rev/day^2
Epoch rev:            5910
Checksum:              310

Satellite: SHINAISAT
Catalog number: 39572
Epoch time:      14328.13084988
Element set:     447
Inclination:      064.9728 deg
RA of node:       197.0096 deg
Eccentricity:    0.0013534
Arg of perigee:   259.7861 deg
Mean anomaly:     100.1802 deg
Mean motion:   16.45181032 rev/day
Decay rate:  2.8848087e-01 rev/day^2
Epoch rev:            4240
Checksum:              324

Satellite: TEIKYOSAT
Catalog number: 39576
Epoch time:      14297.85867254
Element set:     437
Inclination:      064.9818 deg
RA of node:       300.5833 deg
Eccentricity:    0.0008491
Arg of perigee:   317.3597 deg
Mean anomaly:     044.3862 deg
Mean motion:   16.45008906 rev/day
Decay rate:   9.345816e-02 rev/day^2
Epoch rev:            3769
Checksum:              359

Satellite: CO-77
Catalog number: 39577
Epoch time:      14244.78324653
Element set:     379
Inclination:      064.9920 deg
RA of node:       123.7668 deg
Eccentricity:    0.0014904
Arg of perigee:   269.7208 deg
Mean anomaly:     091.1897 deg
Mean motion:   16.43552757 rev/day
Decay rate:  1.0543803e-01 rev/day^2
Epoch rev:            2938
Checksum:              363

Satellite: SPROUT
Catalog number: 39770
Epoch time:      14365.84718488
Element set:     239
Inclination:      097.8722 deg
RA of node:       100.0488 deg
Eccentricity:    0.0010612
Arg of perigee:   034.4392 deg
Mean anomaly:     325.7501 deg
Mean motion:   14.83273055 rev/day
Decay rate:      2.152e-05 rev/day^2
Epoch rev:            3282
Checksum:              292

Satellite: POPSAT-HIP1
Catalog number: 40028
Epoch time:      15001.93481669
Element set:     601
Inclination:      097.9693 deg
RA of node:       261.9422 deg
Eccentricity:    0.0015236
Arg of perigee:   011.5343 deg
Mean anomaly:     348.6181 deg
Mean motion:   14.86121488 rev/day
Decay rate:      3.232e-05 rev/day^2
Epoch rev:            2908
Checksum:              290

Satellite: EO-80
Catalog number: 40032
Epoch time:      15001.76414037
Element set:     584
Inclination:      097.9658 deg
RA of node:       261.6035 deg
Eccentricity:    0.0013002
Arg of perigee:   007.7923 deg
Mean anomaly:     352.3471 deg
Mean motion:   14.85859053 rev/day
Decay rate:      3.452e-05 rev/day^2
Epoch rev:            2906
Checksum:              287

Satellite: VELOX-1
Catalog number: 40057
Epoch time:      15001.91193112
Element set:     592
Inclination:      098.2341 deg
RA of node:       077.2724 deg
Eccentricity:    0.0012247
Arg of perigee:   053.8971 deg
Mean anomaly:     306.3314 deg
Mean motion:   14.74962177 rev/day
Decay rate:      3.280e-05 rev/day^2
Epoch rev:            2736
Checksum:              280

Satellite: DAURIA DX 1
Catalog number: 40071
Epoch time:      15001.42772968
Element set:     561
Inclination:      098.3799 deg
RA of node:       065.8539 deg
Eccentricity:    0.0009798
Arg of perigee:   058.2159 deg
Mean anomaly:     301.9997 deg
Mean motion:   14.79975049 rev/day
Decay rate:      1.619e-05 rev/day^2
Epoch rev:            2612
Checksum:              350

