BEESAT-2
1 39136U 13015G   15001.02670085  .00006119  00000-0  40397-3 0  7864
2 39136 064.8737 232.3032 0035928 274.8877 084.8142 15.07789289 93436
LO-75
1 39382U 13064C   14295.69194059  .07301741  00000-0  36367-2 0  4875
2 39382 040.4713 030.2705 0002289 341.7175 018.4586 16.19795749470823
ZACUBE-1
1 39417U 13066B   15001.13425270  .00001567  00000-0  21288-3 0  5035
2 39417 097.7536 069.8054 0060195 321.2795 038.4109 14.78997562 59934
TRITON-1
1 39427U 13066M   14365.75883338  .00001071  00000-0  18510-3 0  3547
2 39427 097.7397 061.2048 0116072 341.9263 017.7830 14.66087731 59334
DELFIN3XT
1 39428U 13066N   15001.41918848  .00002098  00000-0  36183-3 0  3595
2 39428 097.7399 060.4863 0125581 343.5068 016.2067 14.64447629 59328
GOMX-1
1 39430U 13066Q   15001.76541923  .00001807  00000-0  34622-3 0  1289
2 39430 097.7340 056.7378 0155196 354.1758 005.7627 14.57512908 59134
MO-76
1 39436U 13066W   15001.15633108  .00022107  00000-0  18693-2 0  4520
2 39436 097.7623 077.3409 0021819 312.6117 047.3265 14.97882650 60411
LO-74
1 39440U 13066AA  15001.70862373  .00001297  00000-0  19525-3 0  3515
2 39440 097.7478 067.0878 0081941 326.1162 033.4827 14.73872166 59808
PUCPSAT-1
1 39442U 13066AC  15001.66010893  .00003080  00000-0  34290-3 0  3523
2 39442 097.7603 075.4630 0032622 313.8959 045.9565 14.87458894 59101
SHINAISAT
1 39572U 14009A   14328.13084988  .28848087  76253-5  66603-3 0  4474
2 39572 064.9728 197.0096 0013534 259.7861 100.1802 16.45181032 42403
TEIKYOSAT
1 39576U 14009E   14297.85867254  .09345816  76764-5  25176-3 0  4374
2 39576 064.9818 300.5833 0008491 317.3597 044.3862 16.45008906 37698
CO-77
1 39577U 14009F   14244.78324653  .10543803  76292-5  32273-3 0  3795
2 39577 064.9920 123.7668 0014904 269.7208 091.1897 16.43552757 29380
SPROUT
1 39770U 14029E   14365.84718488  .00002152  00000-0  26935-3 0  2394
2 39770 097.8722 100.0488 0010612 034.4392 325.7501 14.83273055 32825
POPSAT-HIP1
1 40028U 14033U   15001.93481669  .00003232  00000-0  37438-3 0  6016
2 40028 097.9693 261.9422 0015236 011.5343 348.6181 14.86121488 29082
EO-80
1 40032U 14033Y   15001.76414037  .00003452  00000-0  40212-3 0  5845
2 40032 097.9658 261.6035 0013002 007.7923 352.3471 14.85859053 29062
VELOX-1
1 40057U 14034E   15001.91193112  .00003280  00000-0  49533-3 0  5921
2 40057 098.2341 077.2724 0012247 053.8971 306.3314 14.74962177 27369
DAURIA DX 1
1 40071U 14037C   15001.42772968  .00001619  00000-0  22154-3 0  5618
2 40071 098.3799 065.8539 0009798 058.2159 301.9997 14.79975049 26122
